{"type": "FeatureCollection", "features": [ {"type": "Feature", "properties": {"norad_id": 34031, "name": "COSMOS 2251 DEB", "group": "cosmos-2251-debris", "lat": -46.70369612333755, "lon": -40.18335963968941, "alt_km": 684.5490890845658, "timestamp": "2025-12-19T20:43:00.479354+00:00", "meta": {"OBJECT_NAME": "COSMOS 2251 DEB", "OBJECT_ID": "1993-036HS", "EPOCH": "2025-12-19T03:29:25.717056", "MEAN_MOTION": 14.59757227, "ECCENTRICITY": 0.00229414, "INCLINATION": 74.0127, "RA_OF_ASC_NODE": 123.4727, "ARG_OF_PERICENTER": 243.4611, "MEAN_ANOMALY": 175.3292, "EPHEMERIS_TYPE": 0, "CLASSIFICATION_TYPE": "U", "NORAD_CAT_ID": 34031, "ELEMENT_SET_NO": 999, "REV_AT_EPOCH": 88659, "BSTAR": 0.00097665147, "MEAN_MOTION_DOT": 4.652e-05, "MEAN_MOTION_DDOT": 0}, "tle": {"line1": "1 34031U 93036HS  25353.14543654  .00004652  00000+0  97665-3 0  9994", "line2": "2 34031  74.0127 123.4727 0022941 243.4611 175.3292 14.59757227886593"}}, "geometry": {"type": "Point", "coordinates": [-40.18335963968941, -46.70369612333755]}}, {"type": "Feature", "properties": {"norad_id": 34035, "name": "COSMOS 2251 DEB", "group": "cosmos-2251-debris", "lat": -13.119340710124076, "lon": 159.5607881174467, "alt_km": 748.4438352814877, "timestamp": "2025-12-19T20:43:00.479364+00:00", "meta": {"OBJECT_NAME": "COSMOS 2251 DEB", "OBJECT_ID": "1993-036HW", "EPOCH": "2025-12-19T00:14:29.888160", "MEAN_MOTION": 14.52017996, "ECCENTRICITY": 0.00450959, "INCLINATION": 74.0652, "RA_OF_ASC_NODE": 337.3466, "ARG_OF_PERICENTER": 337.5642, "MEAN_ANOMALY": 78.5564, "EPHEMERIS_TYPE": 0, "CLASSIFICATION_TYPE": "U", "NORAD_CAT_ID": 34035, "ELEMENT_SET_NO": 999, "REV_AT_EPOCH": 88057, "BSTAR": 0.0012957618, "MEAN_MOTION_DOT": 5.282e-05, "MEAN_MOTION_DDOT": 0}, "tle": {"line1": "1 34035U 93036HW  25353.01006815  .00005282  00000+0  12958-2 0  9998", "line2": "2 34035  74.0652 337.3466 0045095 337.5642  78.5564 14.52017996880573"}}, "geometry": {"type": "Point", "coordinates": [159.5607881174467, -13.119340710124076]}}, {"type": "Feature", "properties": {"norad_id": 34036, "name": "COSMOS 2251 DEB", "group": "cosmos-2251-debris", "lat": 54.29922957446809, "lon": -68.61930668842729, "alt_km": 569.7324373726178, "timestamp": "2025-12-19T20:43:00.479374+00:00", "meta": {"OBJECT_NAME": "COSMOS 2251 DEB", "OBJECT_ID": "1993-036HX", "EPOCH": "2025-12-18T13:39:59.580576", "MEAN_MOTION": 14.95421329, "ECCENTRICITY": 0.00110737, "INCLINATION": 74.0196, "RA_OF_ASC_NODE": 137.4958, "ARG_OF_PERICENTER": 168.8965, "MEAN_ANOMALY": 191.2466, "EPHEMERIS_TYPE": 0, "CLASSIFICATION_TYPE": "U", "NORAD_CAT_ID": 34036, "ELEMENT_SET_NO": 999, "REV_AT_EPOCH": 88657, "BSTAR": 0.0031797854, "MEAN_MOTION_DOT": 0.00035336, "MEAN_MOTION_DDOT": 0}, "tle": {"line1": "1 34036U 93036HX  25352.56943959  .00035336  00000+0  31798-2 0  9993", "line2": "2 34036  74.0196 137.4958 0011073 168.8965 191.2466 14.95421329886570"}}, "geometry": {"type": "Point", "coordinates": [-68.61930668842729, 54.29922957446809]}}, {"type": "Feature", "properties": {"norad_id": 34037, "name": "COSMOS 2251 DEB", "group": "cosmos-2251-debris", "lat": 64.29227403581734, "lon": 73.84550936351654, "alt_km": 733.7686710488015, "timestamp": "2025-12-19T20:43:00.479385+00:00", "meta": {"OBJECT_NAME": "COSMOS 2251 DEB", "OBJECT_ID": "1993-036HY", "EPOCH": "2025-12-19T05:20:02.689440", "MEAN_MOTION": 14.34680787, "ECCENTRICITY": 0.00518317, "INCLINATION": 74.0512, "RA_OF_ASC_NODE": 38.578, "ARG_OF_PERICENTER": 86.5709, "MEAN_ANOMALY": 274.137, "EPHEMERIS_TYPE": 0, "CLASSIFICATION_TYPE": "U", "NORAD_CAT_ID": 34037, "ELEMENT_SET_NO": 999, "REV_AT_EPOCH": 87810, "BSTAR": 0.0003132828, "MEAN_MOTION_DOT": 8.75e-06, "MEAN_MOTION_DDOT": 0}, "tle": {"line1": "1 34037U 93036HY  25353.22225335  .00000875  00000+0  31328-3 0  9999", "line2": "2 34037  74.0512  38.5780 0051831  86.5709 274.1370 14.34680787878108"}}, "geometry": {"type": "Point", "coordinates": [73.84550936351654, 64.29227403581734]}}, {"type": "Feature", "properties": {"norad_id": 34040, "name": "COSMOS 2251 DEB", "group": "cosmos-2251-debris", "lat": 60.11550181344915, "lon": 84.14173868781016, "alt_km": 860.4494864170283, "timestamp": "2025-12-19T20:43:00.479395+00:00", "meta": {"OBJECT_NAME": "COSMOS 2251 DEB", "OBJECT_ID": "1993-036JB", "EPOCH": "2025-12-19T04:37:49.766304", "MEAN_MOTION": 13.683837, "ECCENTRICITY": 0.03432402, "INCLINATION": 73.9557, "RA_OF_ASC_NODE": 55.2, "ARG_OF_PERICENTER": 7.256, "MEAN_ANOMALY": 353.334, "EPHEMERIS_TYPE": 0, "CLASSIFICATION_TYPE": "U", "NORAD_CAT_ID": 34040, "ELEMENT_SET_NO": 999, "REV_AT_EPOCH": 83688, "BSTAR": 0.0004706507, "MEAN_MOTION_DOT": 5.84e-06, "MEAN_MOTION_DDOT": 0}, "tle": {"line1": "1 34040U 93036JB  25353.19293711  .00000584  00000+0  47065-3 0  9994", "line2": "2 34040  73.9557  55.2000 0343240   7.2560 353.3340 13.68383700836880"}}, "geometry": {"type": "Point", "coordinates": [84.14173868781016, 60.11550181344915]}}, {"type": "Feature", "properties": {"norad_id": 34045, "name": "COSMOS 2251 DEB", "group": "cosmos-2251-debris", "lat": 71.6140883669195, "lon": 58.36726201151494, "alt_km": 767.5948237197299, "timestamp": "2025-12-19T20:43:00.479406+00:00", "meta": {"OBJECT_NAME": "COSMOS 2251 DEB", "OBJECT_ID": "1993-036JG", "EPOCH": "2025-12-19T05:41:55.171968", "MEAN_MOTION": 14.34072275, "ECCENTRICITY": 0.00259332, "INCLINATION": 74.0394, "RA_OF_ASC_NODE": 298.9423, "ARG_OF_PERICENTER": 20.6012, "MEAN_ANOMALY": 89.0526, "EPHEMERIS_TYPE": 0, "CLASSIFICATION_TYPE": "U", "NORAD_CAT_ID": 34045, "ELEMENT_SET_NO": 999, "REV_AT_EPOCH": 88126, "BSTAR": 6.8402332e-05, "MEAN_MOTION_DOT": 1.66e-06, "MEAN_MOTION_DDOT": 0}, "tle": {"line1": "1 34045U 93036JG  25353.23744412  .00000166  00000+0  68402-4 0  9998", "line2": "2 34045  74.0394 298.9423 0025933  20.6012  89.0526 14.34072275881265"}}, "geometry": {"type": "Point", "coordinates": [58.36726201151494, 71.6140883669195]}}, {"type": "Feature", "properties": {"norad_id": 34046, "name": "COSMOS 2251 DEB", "group": "cosmos-2251-debris", "lat": 43.506794237156946, "lon": 12.935100021398252, "alt_km": 688.3578239656981, "timestamp": "2025-12-19T20:43:00.479416+00:00", "meta": {"OBJECT_NAME": "COSMOS 2251 DEB", "OBJECT_ID": "1993-036JH", "EPOCH": "2025-12-19T00:43:57.227808", "MEAN_MOTION": 14.46521232, "ECCENTRICITY": 0.00744204, "INCLINATION": 74.0392, "RA_OF_ASC_NODE": 358.7267, "ARG_OF_PERICENTER": 80.2904, "MEAN_ANOMALY": 311.5854, "EPHEMERIS_TYPE": 0, "CLASSIFICATION_TYPE": "U", "NORAD_CAT_ID": 34046, "ELEMENT_SET_NO": 999, "REV_AT_EPOCH": 87917, "BSTAR": 0.00087623791, "MEAN_MOTION_DOT": 3.24e-05, "MEAN_MOTION_DDOT": 0}, "tle": {"line1": "1 34046U 93036JH  25353.03052347  .00003240  00000+0  87624-3 0  9998", "line2": "2 34046  74.0392 358.7267 0074420  80.2904 311.5854 14.46521232879171"}}, "geometry": {"type": "Point", "coordinates": [12.935100021398252, 43.506794237156946]}}, {"type": "Feature", "properties": {"norad_id": 34050, "name": "COSMOS 2251 DEB", "group": "cosmos-2251-debris", "lat": 67.40111615181907, "lon": 41.09444287715405, "alt_km": 747.8059284469318, "timestamp": "2025-12-19T20:43:00.479426+00:00", "meta": {"OBJECT_NAME": "COSMOS 2251 DEB", "OBJECT_ID": "1993-036JM", "EPOCH": "2025-12-18T17:24:58.136832", "MEAN_MOTION": 13.96193763, "ECCENTRICITY": 0.021463, "INCLINATION": 74.0883, "RA_OF_ASC_NODE": 359.7841, "ARG_OF_PERICENTER": 62.5594, "MEAN_ANOMALY": 55.3269, "EPHEMERIS_TYPE": 0, "CLASSIFICATION_TYPE": "U", "NORAD_CAT_ID": 34050, "ELEMENT_SET_NO": 999, "REV_AT_EPOCH": 85515, "BSTAR": 0.0005354004, "MEAN_MOTION_DOT": 8.71e-06, "MEAN_MOTION_DDOT": 0}, "tle": {"line1": "1 34050U 93036JM  25352.72567288  .00000871  00000+0  53540-3 0  9990", "line2": "2 34050  74.0883 359.7841 0214630  62.5594  55.3269 13.96193763855150"}}, "geometry": {"type": "Point", "coordinates": [41.09444287715405, 67.40111615181907]}}, {"type": "Feature", "properties": {"norad_id": 34053, "name": "COSMOS 2251 DEB", "group": "cosmos-2251-debris", "lat": -72.57877180818602, "lon": 163.20502965958957, "alt_km": 1132.0374821761834, "timestamp": "2025-12-19T20:43:00.479437+00:00", "meta": {"OBJECT_NAME": "COSMOS 2251 DEB", "OBJECT_ID": "1993-036JQ", "EPOCH": "2025-12-19T01:32:20.446656", "MEAN_MOTION": 13.49171011, "ECCENTRICITY": 0.04225955, "INCLINATION": 73.8435, "RA_OF_ASC_NODE": 231.9802, "ARG_OF_PERICENTER": 19.4918, "MEAN_ANOMALY": 342.1806, "EPHEMERIS_TYPE": 0, "CLASSIFICATION_TYPE": "U", "NORAD_CAT_ID": 34053, "ELEMENT_SET_NO": 999, "REV_AT_EPOCH": 82769, "BSTAR": 0.00056919139, "MEAN_MOTION_DOT": 6e-06, "MEAN_MOTION_DDOT": 0}, "tle": {"line1": "1 34053U 93036JQ  25353.06412554  .00000600  00000+0  56919-3 0  9999", "line2": "2 34053  73.8435 231.9802 0422595  19.4918 342.1806 13.49171011827695"}}, "geometry": {"type": "Point", "coordinates": [163.20502965958957, -72.57877180818602]}}, {"type": "Feature", "properties": {"norad_id": 34056, "name": "COSMOS 2251 DEB", "group": "cosmos-2251-debris", "lat": 52.85516923544389, "lon": -138.52443531516312, "alt_km": 731.6385608977671, "timestamp": "2025-12-19T20:43:00.479448+00:00", "meta": {"OBJECT_NAME": "COSMOS 2251 DEB", "OBJECT_ID": "1993-036JT", "EPOCH": "2025-12-18T15:59:27.207168", "MEAN_MOTION": 14.2057747, "ECCENTRICITY": 0.01237714, "INCLINATION": 74.0597, "RA_OF_ASC_NODE": 65.7803, "ARG_OF_PERICENTER": 112.0513, "MEAN_ANOMALY": 12.8618, "EPHEMERIS_TYPE": 0, "CLASSIFICATION_TYPE": "U", "NORAD_CAT_ID": 34056, "ELEMENT_SET_NO": 999, "REV_AT_EPOCH": 86495, "BSTAR": 0.0004746606, "MEAN_MOTION_DOT": 1.079e-05, "MEAN_MOTION_DDOT": 0}, "tle": {"line1": "1 34056U 93036JT  25352.66628712  .00001079  00000+0  47466-3 0  9990", "line2": "2 34056  74.0597  65.7803 0123771 112.0513  12.8618 14.20577470864950"}}, "geometry": {"type": "Point", "coordinates": [-138.52443531516312, 52.85516923544389]}}]}